[{"OBJECT_NAME":"STARLINK-30205","OBJECT_ID":"2023-102E","EPOCH":"2026-03-09T22:00:01.999584","MEAN_MOTION":15.16447452,"ECCENTRICITY":0.00018696,"INCLINATION":43.0006,"RA_OF_ASC_NODE":246.9923,"ARG_OF_PERICENTER":276.197,"MEAN_ANOMALY":248.6091,"EPHEMERIS_TYPE":0,"CLASSIFICATION_TYPE":"U","NORAD_CAT_ID":57408,"ELEMENT_SET_NO":999,"REV_AT_EPOCH":577,"BSTAR":0.032319724,"MEAN_MOTION_DOT":0.00685913,"MEAN_MOTION_DDOT":0},{"OBJECT_NAME":"HERMES-6","OBJECT_ID":"2025-052BK","EPOCH":"2026-03-09T21:29:23.907840","MEAN_MOTION":15.21631048,"ECCENTRICITY":0.00073357,"INCLINATION":97.4102,"RA_OF_ASC_NODE":322.8569,"ARG_OF_PERICENTER":144.5073,"MEAN_ANOMALY":215.6652,"EPHEMERIS_TYPE":0,"CLASSIFICATION_TYPE":"U","NORAD_CAT_ID":63489,"ELEMENT_SET_NO":999,"REV_AT_EPOCH":5472,"BSTAR":0.00042019054,"MEAN_MOTION_DOT":9.433e-5,"MEAN_MOTION_DDOT":0}]
